STARLINK-2601_new
1 18384C 21038AH  21326.11527669  .00006909  00000-0  46283-3 0  3266
2 18384  53.0527 193.2108 0002009  78.4003 126.9113 15.06399521    13
STARLINK-2601_old
1 28384C 21038AH  21325.12171343  .00002631  00000-0  17632-3 0  3253
2 28384  53.0542 197.6758 0002056  74.8659 139.3227 15.06388696    13
